STARLINK-31413          
1 59353U 24060F   26068.54641809 -.00002024  00000+0 -64073-4 0  9999
2 59353  43.0004 260.4350 0001123 286.1881  73.8847 15.27571850110043
FLOCK 4G-2              
1 62661U 25009BE  26068.66207492  .00013752  00000+0  51068-3 0  9995
2 62661  97.4044 151.2221 0003181 329.2677  30.8376 15.27675260121321
